{"fetched_at":"2026-07-21T17:53:47.971Z","source":"https://celestrak.org/NORAD/elements/gp.php?NAME=SENTINEL&FORMAT=JSON","constellation":"sentinel-1","records":[{"OBJECT_NAME":"SENTINEL-1A","OBJECT_ID":"2014-016A","EPOCH":"2026-07-21T04:09:29.759040","CLASSIFICATION_TYPE":"U","MEAN_MOTION":14.59173385,"ECCENTRICITY":0.0001435,"INCLINATION":98.1736,"RA_OF_ASC_NODE":209.2075,"ARG_OF_PERICENTER":84.3728,"MEAN_ANOMALY":275.7635,"EPHEMERIS_TYPE":0,"NORAD_CAT_ID":39634,"ELEMENT_SET_NO":999,"REV_AT_EPOCH":65497,"BSTAR":-0.000013010704,"MEAN_MOTION_DOT":-0.00000107,"MEAN_MOTION_DDOT":0},{"OBJECT_NAME":"SENTINEL-1C","OBJECT_ID":"2024-235A","EPOCH":"2026-07-21T06:44:52.873728","CLASSIFICATION_TYPE":"U","MEAN_MOTION":14.59199018,"ECCENTRICITY":0.00013923,"INCLINATION":98.1825,"RA_OF_ASC_NODE":209.1059,"ARG_OF_PERICENTER":89.0648,"MEAN_ANOMALY":271.0711,"EPHEMERIS_TYPE":0,"NORAD_CAT_ID":62261,"ELEMENT_SET_NO":999,"REV_AT_EPOCH":8638,"BSTAR":0.000032886362,"MEAN_MOTION_DOT":0.00000109,"MEAN_MOTION_DDOT":0},{"OBJECT_NAME":"SENTINEL-1D","OBJECT_ID":"2025-251A","EPOCH":"2026-07-21T00:59:30.311520","CLASSIFICATION_TYPE":"U","MEAN_MOTION":14.59197715,"ECCENTRICITY":0.00013669,"INCLINATION":98.183,"RA_OF_ASC_NODE":208.9247,"ARG_OF_PERICENTER":88.024,"MEAN_ANOMALY":272.1116,"EPHEMERIS_TYPE":0,"NORAD_CAT_ID":66315,"ELEMENT_SET_NO":999,"REV_AT_EPOCH":3766,"BSTAR":0.000010634539,"MEAN_MOTION_DOT":4e-8,"MEAN_MOTION_DDOT":0}]}
