SENTINEL-1A             
1 39634U 14016A   26202.17326110 -.00000107  00000+0 -13011-4 0  9999
2 39634  98.1736 209.2075 0001435  84.3728 275.7635 14.59173385654973
SENTINEL-1C             
1 62261U 24235A   26202.28116752  .00000109  00000+0  32886-4 0  9997
2 62261  98.1825 209.1059 0001392  89.0648 271.0711 14.59199018 86389
SENTINEL-1D             
1 66315U 25251A   26202.04132305  .00000004  00000+0  10635-4 0  9998
2 66315  98.1830 208.9247 0001366  88.0240 272.1116 14.59197715 37663
